[{"OBJECT_NAME":"BNU-1 (JINGSHI 1)","OBJECT_ID":"2019-059B","EPOCH":"2026-03-09T22:44:13.004736","MEAN_MOTION":14.48293204,"ECCENTRICITY":0.00122993,"INCLINATION":98.5897,"RA_OF_ASC_NODE":196.2785,"ARG_OF_PERICENTER":317.1468,"MEAN_ANOMALY":42.8765,"EPHEMERIS_TYPE":0,"CLASSIFICATION_TYPE":"U","NORAD_CAT_ID":44529,"ELEMENT_SET_NO":999,"REV_AT_EPOCH":34262,"BSTAR":0.00022298879,"MEAN_MOTION_DOT":7.88e-6,"MEAN_MOTION_DDOT":0},{"OBJECT_NAME":"SL-8 DEB","OBJECT_ID":"1987-049D","EPOCH":"2026-03-09T10:13:12.695232","MEAN_MOTION":14.49592452,"ECCENTRICITY":0.00173206,"INCLINATION":74.028,"RA_OF_ASC_NODE":64.3005,"ARG_OF_PERICENTER":302.3713,"MEAN_ANOMALY":208.354,"EPHEMERIS_TYPE":0,"CLASSIFICATION_TYPE":"U","NORAD_CAT_ID":18681,"ELEMENT_SET_NO":999,"REV_AT_EPOCH":3111,"BSTAR":0.00050719199,"MEAN_MOTION_DOT":1.924e-5,"MEAN_MOTION_DDOT":0}]
